RADUGA 1 [-]            
1 08513U 75123A   22312.00993260  .00000002  00000+0  00000+0 0  9994
2 08513   6.1930 286.6077 0007744 222.8171 326.3326  1.00281316181602
RADUGA 2 [-]            
1 09416U 76092A   22312.37197556 -.00000161  00000+0  00000+0 0  9994
2 09416   6.8560 288.6017 0026910 359.1280 335.5124  1.00293526116138
RADUGA 3 [-]            
1 10159U 77071A   22312.37310917 -.00000190  00000+0  00000+0 0  9998
2 10159   7.4725 291.2195 0009460 241.4663  96.3500  1.00192068163838
RADUGA 4 [-]            
1 10987U 78073A   22312.05813022  .00000118  00000+0  00000+0 0  9999
2 10987   8.1013 294.7658 0008251 356.1910 183.1861  1.00318695106392
RADUGA 5 [-]            
1 11343U 79035A   22312.01333341 -.00000162  00000+0  00000+0 0  9992
2 11343   8.5621 297.5484 0006503 177.8141  18.7076  1.00253524116142
RADUGA 6 [-]            
1 11708U 80016A   22312.01272301 -.00000153  00000+0  00000+0 0  9996
2 11708   8.9251 300.6453 0003240 210.7879 339.1757  1.00344053108956
RADUGA 7 [-]            
1 12003U 80081A   22312.30188014 -.00000200  00000+0  00000+0 0  9999
2 12003   9.1100 302.6058 0010349 265.0072 283.3243  1.00276363110108
RADUGA 8 [-]            
1 12351U 81027A   22311.85208477 -.00000348  00000+0  00000+0 0  9994
2 12351   9.4428 303.1925 0082595 231.7425 306.8587  1.00374318109326
RADUGA 9 [-]            
1 12618U 81069A   22312.01150220 -.00000101  00000+0  00000+0 0  9994
2 12618   9.6659 306.1809 0003746 164.3089  13.6054  1.00356677 34138
RADUGA 10 [-]           
1 12897U 81102A   22312.01403102 -.00000204  00000+0  00000+0 0  9995
2 12897   9.7520 307.1671 0005851 186.5350   3.9617  1.00274534104135
RADUGA 11 [-]           
1 13669U 82113A   22312.37030002 -.00000181  00000+0  00000+0 0  9994
2 13669  11.8148 320.9732 0038547 256.2379 109.2159  0.97710090108679
RADUGA 12 [-]           
1 13974U 83028A   22312.01106619 -.00000069  00000+0  00000+0 0  9993
2 13974  10.9103 316.9839 0001736 122.3634  42.0038  1.00292546156173
RADUGA 13 [-]           
1 14307U 83088A   22311.78381706 -.00000162  00000+0  00000+0 0  9999
2 14307  12.0682 322.5179 0014608  43.0749 334.3207  0.98175186106016
RADUGA 14 [-]           
1 14725U 84016A   22312.01403102 -.00000204  00000+0  00000+0 0  9994
2 14725  11.1238 320.7714 0004928 149.0301  27.4964  1.00258573104897
RADUGA 15 [-]           
1 15057U 84063A   22311.95107233 -.00000360  00000+0  00000+0 0  9996
2 15057  11.2477 321.7592 0005828 164.8557  32.3647  1.00275790127893
RADUGA 16 [-]           
1 15946U 85070A   22312.33839149  .00000103  00000+0  00000+0 0  9997
2 15946  11.7198 326.4382 0002426 175.5463 222.8577  1.00314135109020
RADUGA 17 [-]           
1 16250U 85107A   22312.25016809 -.00000073  00000+0  00000+0 0  9995
2 16250  11.8455 327.8376 0014404 187.0938 235.1675  1.00127286138485
RADUGA 18 [-]           
1 16497U 86007A   22312.28035501 -.00000157  00000+0  00000+0 0  9994
2 16497  12.6585 330.5567 0075883 167.9690 196.6555  0.98814703132850
RADUGA 19 [-]           
1 17046U 86082A   22312.17757786 -.00000020  00000+0  00000+0 0  9991
2 17046  13.0967 334.5026 0013616 154.0125  31.8563  0.98459216129949
RADUGA 20 [-]           
1 17611U 87028A   22312.02549363 -.00000126  00000+0  00000+0 0  9991
2 17611  15.1181 338.0139 0030657 141.2303  55.7516  0.95961436125670
RADUGA 21 [-]           
1 18631U 87100A   22312.23035361  .00000098  00000+0  00000+0 0  9993
2 18631  13.1887 335.3165 0003722 138.7279 228.8428  1.00319818127887
RADUGA 22 [-]           
1 19596U 88095A   22311.84533750 -.00000366  00000+0  00000+0 0  9998
2 19596  13.1830 339.6381 0007817 145.0229 338.5657  1.00190582108447
RADUGA 23 [-]           
1 19928U 89030A   22311.59962615  .00000019  00000+0  00000+0 0  9999
2 19928  13.3369 341.4619 0022225 166.9037 172.4717  1.00357339121632
RADUGA-1 1 [-]          
1 20083U 89048A   22312.32132753 -.00000179  00000+0  00000+0 0  9994
2 20083  14.0968 344.5308 0022664 118.4884  66.3821  0.98710482118278
RADUGA 24 [-]           
1 20367U 89098A   22311.70084187  .00000083  00000+0  00000+0 0  9995
2 20367  13.9176 343.7104 0002340 148.8966 217.3387  1.00233064119764
RADUGA 25 [-]           
1 20499U 90016A   22312.16608226 -.00000197  00000+0  00000+0 0  9997
2 20499  13.6880 344.3719 0005752 150.7484 243.2462  1.00169121119703
RADUGA 26 [-]           
1 21016U 90112A   22311.83208854 -.00000141  00000+0  00000+0 0  9995
2 21016  14.0121 347.6283 0007333  98.9790 336.7944  1.00322192117052
RADUGA-1 2 [-]          
1 21038U 90116A   22311.70118910  .00000072  00000+0  00000+0 0  9994
2 21038  14.0506 347.7004 0008742 106.9550 256.0730  1.00296802 34136
RADUGA 27 [-]           
1 21132U 91014A   22311.75327038  .00000105  00000+0  00000+0 0  9992
2 21132  14.5592 347.2201 0003674 112.2261 242.0930  1.00309969116095
RADUGA 28 [-]           
1 21821U 91087A   22311.83408662 -.00000131  00000+0  00000+0 0  9999
2 21821  14.3361 350.9688 0007844 132.3281 302.9857  1.00182456113114
RADUGA 29 [-]           
1 22557U 93013A   22311.70118910  .00000033  00000+0  00000+0 0  9997
2 22557  14.5551 355.1480 0007310 123.9011 235.7407  1.00376878108465
RADUGA 30 [-]           
1 22836U 93062A   22311.71811095 -.00000084  00000+0  00000+0 0  9993
2 22836  14.6018 357.1218 0000860   2.8340  17.5655  1.00260617 32794
RADUGA-1 3 [-]          
1 22981U 94008A   22311.61854962 -.00000227  00000+0  00000+0 0  9993
2 22981  14.6830 358.2706 0004032 118.7967 240.7588  1.00223095105265
RADUGA 31 [-]           
1 23010U 94012A   22311.71751150 -.00000117  00000+0  00000+0 0  9996
2 23010  14.6531 358.2679 0005785 102.3360 278.3765  1.00340126105144
RADUGA 32 [-]           
1 23448U 94087A   22311.71751150 -.00000094  00000+0  00000+0 0  9997
2 23448  14.6437   0.9852 0005437 198.9335 178.3982  1.00261826119677
RADUGA-1 4 [-]          
1 25642U 99010A   22312.27827088  .00000080  00000+0  00000+0 0  9996
2 25642  15.2478  12.5324 0002375 229.1187 314.8712  1.00332646 86748
RADUGA-1 5 [-]          
1 26477U 00049A   22311.79157789  .00000087  00000+0  00000+0 0  9994
2 26477  13.2106  17.4786 0005135  73.4306 290.0636  1.00309147 81281
RADUGA-1 6 [-]          
1 26936U 01045A   22312.27131597 -.00000054  00000+0  00000+0 0  9999
2 26936  13.3972  23.8160 0016757 166.3321 194.4117  0.97743690 75735
RADUGA-1 7 [-]          
1 28194U 04010A   22312.14632701 -.00000366  00000+0  00000+0 0  9997
2 28194  12.1348  30.6270 0002399 172.4822  10.9415  1.00204577 68215
RADUGA-1M 1 [-]         
1 32373U 07058A   22312.28729821 -.00000121  00000+0  00000+0 0  9990
2 32373   7.2127  63.0340 0001474  44.2167 142.1559  0.99393951 39305
RADUGA-1 8 [-]          
1 34264U 09010A   22312.32948441  .00000084  00000+0  00000+0 0  9994
2 34264   9.5079  52.9938 0013604   5.8039 339.2795  0.99818653 50020
RADUGA-1M 2 [+]         
1 36358U 10002A   22312.39146459 -.00000180  00000+0  00000+0 0  9997
2 36358   0.2080 101.3783 0002709 193.0330 339.0906  1.00274017 36884
RADUGA-1M 3 [+]         
1 39375U 13062A   22312.57785586  .00000161  00000+0  00000+0 0  9996
2 39375   2.5958  88.0524 0001759 111.6422  91.0824  1.00274914 32922
